LEMUR-1                 
1 40044U 14033AL  26073.96237051  .00002959  00000+0  34729-3 0  9996
2 40044  97.7721 225.9579 0049127  28.7785 331.6124 14.84832689631481
LEMUR-2-GREENBERG       
1 42837U 17042N   26074.28998182  .00020077  00000+0  73072-3 0  9991
2 42837  97.3777 255.5721 0008743 343.3604  16.7348 15.28224076474032
LEMUR-2-ANDIS           
1 42838U 17042P   26074.24671760  .00026183  00000+0  87747-3 0  9996
2 42838  97.3660 255.4404 0008879 343.1108  16.9837 15.30862010474065
LEMUR-2-MONSON          
1 42839U 17042Q   26074.23574636  .00019556  00000+0  77963-3 0  9995
2 42839  97.4034 255.6150 0006208 332.1486  27.9418 15.25224248473833
LEMUR-2-FURIAUS         
1 42840U 17042R   26074.00918419  .00028209  00000+0  10779-2 0  9999
2 42840  97.3746 253.4828 0007391  38.5422 321.6343 15.26554397473825
LEMUR-2-PETERG          
1 42841U 17042S   26074.23852923  .00030318  00000+0  10449-2 0  9990
2 42841  97.3978 259.3894 0003406 319.6859  40.4128 15.29955064474053
LEMUR-2-DEMBITZ         
1 42842U 17042T   26074.30682720  .00019686  00000+0  73968-3 0  9996
2 42842  97.3804 256.6926 0006598 356.6988   3.4206 15.27192982474008
LEMUR-2-ZACHARY         
1 42845U 17042W   26074.03725878  .00048430  00000+0  11107-2 0  9996
2 42845  97.3655 264.1850 0003570 357.9522   2.1710 15.42581604474657
LEMUR-2-JIN-LUEN        
1 43182U 18014C   26073.72815399  .00373996  00000+0  17659-2 0  9990
2 43182  97.5419   4.4785 0005370 148.9484 211.2103 15.82063802446263
LEMUR-2-KADI            
1 43184U 18014E   26074.23267137  .00108413  00000+0  10791-2 0  9990
2 43184  97.4675 359.2312 0002442 142.9855 217.1573 15.65353825446251
LEMUR-2-AMANDA-SVANTE   
1 48269U 21034B   26074.20948848  .00033705  00000+0  12014-2 0  9998
2 48269  97.5832 150.3959 0003167 189.7731 170.3447 15.28833916266679
LEMUR-2-SPECIAL-K       
1 48273U 21034F   26074.21863642  .00080947  00000+0  16302-2 0  9996
2 48273  97.5713 155.7707 0001941 209.5036 150.6103 15.46288070267091
LEMUR-2-EMBRIONOVIS     
1 56970U 23084AQ  26074.27825220  .00020671  00000+0  61264-3 0  9998
2 56970  97.6133 215.1374 0008195 290.0876  69.9484 15.34849590153261
LEMUR-2-MANO            
1 57390U 23100E   26074.01894758  .00170250  00000+0  18773-2 0  9993
2 57390  99.4528  98.3192 0001633 187.8698 172.2528 15.62522478147310
LEMUR-2-DEVERILL-M-T    
1 57391U 23100F   26074.25665120  .00032954  00000+0  96621-3 0  9996
2 57391  99.4574  86.2553 0007217  11.1176 349.0219 15.35114257146810
LEMUR-2-BASS            
1 58259U 23174D   26074.21846420  .00019513  00000+0  49005-3 0  9991
2 58259  97.3878 157.8343 0008487 144.5009 215.6803 15.39995402130886
LEMUR-2-JK0903EM1407    
1 58336U 23174CJ  26074.23591411  .00028259  00000+0  55971-3 0  9992
2 58336  97.3915 162.4290 0005927  96.1019 264.0906 15.47015236131189
LEMUR-2-MJR092620       
1 58340U 23174CN  26074.28241784  .00014523  00000+0  33868-3 0  9997
2 58340  97.3981 162.7946 0008233  98.7406 261.4774 15.42307129131161
LEMUR-2-NIMBUS2000      
1 58899U 24022A   26074.29085921  .00019947  00000+0  55171-3 0  9995
2 58899  97.4228 283.2580 0010697  95.7180 264.5284 15.36994700117839
LEMUR-2-VALHALLA        
1 58900U 24022B   26074.14065816  .00021538  00000+0  60000-3 0  9999
2 58900  97.4227 283.1377 0011221  92.1211 268.1319 15.36749064117812
LEMUR-2-OBA-NI-JESU     
1 58902U 24022D   26074.16253528  .00117606  00000+0  11080-2 0  9997
2 58902  97.4057 292.5055 0004547  53.8081 306.3600 15.66695120118459
LEMUR-2-CAEL            
1 58903U 24022E   26073.83396482  .00022029  00000+0  59190-3 0  9997
2 58903  97.4212 283.6097 0009443  78.7120 281.5185 15.37885098117825
LEMUR-2-JOHNNYTRUONG    
1 59146U 24043BA  26074.19239901  .00042689  00000+0  66883-3 0  9993
2 59146  97.5262 220.6308 0005342 166.7178 193.4216 15.53591540113413
LEMUR-2-TOMATOKECHUP    
1 60471U 24149D   26073.71557757  .00026219  00000+0  79863-3 0  9995
2 60471  97.3843 155.6572 0001806 174.1260 186.0005 15.33959476 87671
LEMUR-2-STELLA          
1 60533U 24149BT  26074.22836253  .00015357  00000+0  95735-3 0  9999
2 60533  97.6772 156.4213 0001270  93.2150 266.9224 15.09635686 86317
LEMUR-2-MARHISYAM       
1 60536U 24149BW  26074.17750690  .00015647  00000+0  98756-3 0  9994
2 60536  97.6909 156.7167 0003136  96.7081 263.4504 15.09174952 86291
LEMUR-2-AHMED-ASRAR     
1 60576U 24149DN  26074.16488626  .00015764  00000+0  95849-3 0  9994
2 60576  97.7030 158.4506 0001202   2.7889 357.3347 15.10541606 86364
LEMUR-2-LLOYD           
1 60577U 24149DP  26074.16937063  .00014757  00000+0  97950-3 0  9995
2 60577  97.6783 155.3757 0005143 111.9550 248.2225 15.07325114 86227
LEMUR-2-SQUIRRELCOMM    
1 60578U 24149DQ  26074.20906298  .00008129  00000+0  56184-3 0  9997
2 60578  97.6756 155.4897 0005827  28.5575 331.5970 15.05979514 86256
LEMUR-2-SIERRINI        
1 60579U 24149DR  26074.18094601  .00016073  00000+0  10232-2 0  9991
2 60579  97.6865 156.5021 0006570 135.2792 224.8967 15.08838060 86277
LEMUR-2-WILSON          
1 62694U 25009CP  26074.18751908  .00002527  00000+0  23800-3 0  9992
2 62694  97.7070 154.3191 0003241  19.6851 340.4494 14.94718792 63316
LEMUR-2-STAR-FOX        
1 62696U 25009CR  26074.21262624  .00011622  00000+0  91411-3 0  9999
2 62696  97.7033 156.6085 0003034 142.2756 217.8681 15.01001845 63454
LEMUR-2-ARIANNA         
1 62699U 25009CU  26074.20749185  .00009916  00000+0  78085-3 0  9998
2 62699  97.6988 156.4614 0004829 137.1052 223.0549 15.00991244 63458
LEMUR-2-ALISIA          
1 62706U 25009DB  26074.20340599  .00009734  00000+0  76125-3 0  9994
2 62706  97.7022 157.1183 0006715 148.0222 212.1411 15.01255508 86057
LEMUR-2-ROUNDTRIPPER    
1 62711U 25009DG  26074.22370359  .00010756  00000+0  82009-3 0  9993
2 62711  97.7297 157.1491 0005796 106.7450 253.4411 15.02199596 63510
LEMUR-2-MYNAMEISJEFF    
1 62712U 25009DH  26074.22225615  .00011708  00000+0  89208-3 0  9994
2 62712  97.7343 157.4728 0004965 129.0375 231.1292 15.02204765 63515
LEMUR-2-LEIA-PHILIP     
1 63246U 25052AN  26074.23109024  .00006867  00000+0  60583-3 0  9996
2 63246  97.6942 327.7358 0003977 162.5423 197.5936 14.96711421 54616
LEMUR-2-LIA-MARTIN      
1 63248U 25052AQ  26074.25185418  .00007553  00000+0  66282-3 0  9996
2 63248  97.7008 328.1243 0004561 122.1888 237.9777 14.96887017 54625
LEMUR-2-DELOITTE-1      
1 63259U 25052BB  26074.22069271  .00005111  00000+0  45077-3 0  9990
2 63259  97.7029 328.4097 0002531  69.7372 290.4122 14.96849562 54631
LEMUR-2-EMERSONROSE     
1 63261U 25052BD  26074.22156790  .00006606  00000+0  55982-3 0  9992
2 63261  97.7005 328.7802 0001995  32.3684 327.7661 14.98303476 54666
LEMUR-2-MARACHE-FRAN    
1 63262U 25052BE  26074.24953153  .00008762  00000+0  72755-3 0  9995
2 63262  97.6997 329.0062 0002441  43.6262 316.5154 14.98993340 54682
LEMUR-2-THEFALCONER     
1 63264U 25052BG  26074.23358046  .00006392  00000+0  56624-3 0  9990
2 63264  97.6968 328.1429 0001458   2.1640 357.9588 14.96582845 54633
LEMUR-2-UNTITLED-SC     
1 63351U 25061A   26074.18392573  .00005156  00000+0  29673-3 0  9995
2 63351  97.5558  50.3264 0017549 225.4598 134.5200 15.12758346 53375
LEMUR-2-ESPERANZA       
1 63352U 25061B   26074.16645678  .00005162  00000+0  29655-3 0  9998
2 63352  97.5564  50.3817 0017216 224.8594 135.1246 15.12827058 53371
LEMUR-2-KREMPEL-BRO2    
1 63353U 25061C   26074.15387501  .00005925  00000+0  33565-3 0  9998
2 63353  97.5609  50.7827 0018348 217.3061 142.6896 15.13253061 53383
LEMUR-2-THERMORAPTOR    
1 63354U 25061D   26073.87580693  .00006102  00000+0  34504-3 0  9996
2 63354  97.5617  50.5658 0018061 217.1700 142.8281 15.13311949 53349
LEMUR-2-NEUROSPICY      
1 63355U 25061E   26073.92067631  .00005243  00000+0  29631-3 0  9995
2 63355  97.5545  50.3102 0015733 220.2184 139.7884 15.13427595 53356
LEMUR-2-TILLINFINITY    
1 63356U 25061F   26074.19058255  .00005591  00000+0  31046-3 0  9997
2 63356  97.5530  50.8024 0017288 206.8276 153.2063 15.14008311 53417
LEMUR-2-KREMPEL-BRO1    
1 63357U 25061G   26074.15236103  .00005786  00000+0  32271-3 0  9991
2 63357  97.5529  50.7060 0017981 208.9395 151.0841 15.13827035 53400
LEMUR-2-LANGER2SPACE    
1 63358U 25061H   26074.16008380  .00005714  00000+0  32174-3 0  9990
2 63358  97.5533  50.5656 0015742 217.7588 142.2540 15.13520604 53398
LEMUR-2-BALTO           
1 63395U 25052BH  26074.23548637  .00007917  00000+0  65747-3 0  9992
2 63395  97.6982 328.9873 0001574 355.0662   5.0545 14.99021608 54685
